COMMENT,ORIGINATOR,NORAD_CAT_ID,OBJECT_NAME,OBJECT_TYPE,CLASSIFICATION_TYPE,INTLDES,EPOCH,EPOCH_MICROSECONDS,MEAN_MOTION,ECCENTRICITY,INCLINATION,RA_OF_ASC_NODE,ARG_OF_PERICENTER,MEAN_ANOMALY,EPHEMERIS_TYPE,ELEMENT_SET_NO,REV_AT_EPOCH,BSTAR,MEAN_MOTION_DOT,MEAN_MOTION_DDOT,FILE,TLE_LINE0,TLE_LINE1,TLE_LINE2,OBJECT_ID,OBJECT_NUMBER,SEMIMAJOR_AXIS,PERIOD,APOGEE,PERIGEE,DECAYED
"GENERATED VIA SPACETRACK.ORG API","18 SPCS","48888","SPACEBEE-103","PAYLOAD","U","21059K","2021-09-20 13:59:19","529952","15.1223378","0.0007999","97.524","31.0893","321.6704","38.3957","0","999","1311","0.00012349","0.0000207","0","3121324","0 SPACEBEE-103","1 48888U 21059K   21263.58286493  .00002070  00000-0  12349-3 0  9993","2 48888  97.5240  31.0893 0007999 321.6704  38.3957 15.12233780 13119","2021-059K","48888","6907.526","95.223","534.917","523.866","0"
"GENERATED VIA SPACETRACK.ORG API","18 SPCS","48888","SPACEBEE-103","PAYLOAD","U","21059K","2021-09-20 20:20:27","583008","15.12235222","0.000798","97.5241","31.3501","320.606","39.4589","0","999","1315","0.00013076","0.00002196","0","3121356","0 SPACEBEE-103","1 48888U 21059K   21263.84754147  .00002196  00000-0  13076-3 0  9995","2 48888  97.5241  31.3501 0007980 320.6060  39.4589 15.12235222 13153","2021-059K","48888","6907.522","95.223","534.899","523.875","0"
"GENERATED VIA SPACETRACK.ORG API","18 SPCS","48888","SPACEBEE-103","PAYLOAD","U","21059K","2021-09-21 13:48:34","592832","15.1223903","0.0007964","97.5242","32.0677","318.0432","42.0188","0","999","1326","0.00012612","0.00002116","0","3121847","0 SPACEBEE-103","1 48888U 21059K   21264.57540038  .00002116  00000-0  12612-3 0  9995","2 48888  97.5242  32.0677 0007964 318.0432  42.0188 15.12239030 13260","2021-059K","48888","6907.510","95.223","534.877","523.874","0"
"GENERATED VIA SPACETRACK.ORG API","18 SPCS","48888","SPACEBEE-103","PAYLOAD","U","21059K","2021-09-22 02:30:50","492448","15.12241927","0.0007932","97.5243","32.5893","315.9916","44.0682","0","999","1334","0.00013292","0.00002234","0","3122587","0 SPACEBEE-103","1 48888U 21059K   21265.10475107  .00002234  00000-0  13292-3 0  9995","2 48888  97.5243  32.5893 0007932 315.9916  44.0682 15.12241927 13342","2021-059K","48888","6907.502","95.223","534.846","523.888","0"
"GENERATED VIA SPACETRACK.ORG API","18 SPCS","48888","SPACEBEE-103","PAYLOAD","U","21059K","2021-09-22 07:16:41","547360","15.12243882","0.0007898","97.5246","32.7846","314.8868","45.1721","0","999","1337","0.00017893","0.0000303","0","3123417","0 SPACEBEE-103","1 48888U 21059K   21265.30325865  .00003030  00000-0  17893-3 0  9998","2 48888  97.5246  32.7846 0007898 314.8868  45.1721 15.12243882 13371","2021-059K","48888","6907.496","95.223","534.816","523.905","0"
"GENERATED VIA SPACETRACK.ORG API","18 SPCS","48888","SPACEBEE-103","PAYLOAD","U","21059K","2021-09-23 07:05:56","104800","15.12249809","0.000783","97.5248","33.7628","310.9883","49.067","0","999","1352","0.00019045","0.00003229","0","3124720","0 SPACEBEE-103","1 48888U 21059K   21266.29578825  .00003229  00000-0  19045-3 0  9994","2 48888  97.5248  33.7628 0007830 310.9883  49.0670 15.12249809 13520","2021-059K","48888","6907.478","95.222","534.751","523.934","0"
"GENERATED VIA SPACETRACK.ORG API","18 SPCS","48888","SPACEBEE-103","PAYLOAD","U","21059K","2021-09-23 07:05:56","104800","15.12249809","0.000783","97.5248","33.7628","310.9883","49.067","0","999","1352","0.00019045","0.00003229","0","3124856","0 SPACEBEE-103","1 48888U 21059K   21266.29578825  .00003229  00000-0  19045-3 0  9994","2 48888  97.5248  33.7628 0007830 310.9883  49.0670 15.12249809 13520","2021-059K","48888","6907.478","95.222","534.751","523.934","0"
"GENERATED VIA SPACETRACK.ORG API","18 SPCS","48888","SPACEBEE-103","PAYLOAD","U","21059K","2021-09-23 21:23:28","660416","15.12253143","0.0007792","97.525","34.3496","308.6283","51.4249","0","999","1361","0.00018439","0.00003125","0","3125337","0 SPACEBEE-103","1 48888U 21059K   21266.89130394  .00003125  00000-0  18439-3 0  9996","2 48888  97.5250  34.3496 0007792 308.6283  51.4249 15.12253143 13613","2021-059K","48888","6907.467","95.222","534.715","523.950","0"
"GENERATED VIA SPACETRACK.ORG API","18 SPCS","48888","SPACEBEE-103","PAYLOAD","U","21059K","2021-09-24 08:30:27","199008","15.12255695","0.0007768","97.525","34.8062","306.807","53.2447","0","999","1368","0.0001735","0.00002937","0","3126002","0 SPACEBEE-103","1 48888U 21059K   21267.35448147  .00002937  00000-0  17350-3 0  9997","2 48888  97.5250  34.8062 0007768 306.8070  53.2447 15.12255695 13685","2021-059K","48888","6907.460","95.222","534.690","523.959","0"
"GENERATED VIA SPACETRACK.ORG API","18 SPCS","48888","SPACEBEE-103","PAYLOAD","U","21059K","2021-09-24 18:02:08","775744","15.1225935","0.000774","97.525","35.1974","305.2602","54.7904","0","999","1374","0.00019626","0.00003331","0","3126679","0 SPACEBEE-103","1 48888U 21059K   21267.75149046  .00003331  00000-0  19626-3 0  9994","2 48888  97.5250  35.1974 0007740 305.2602  54.7904 15.12259350 13748","2021-059K","48888","6907.449","95.222","534.660","523.967","0"
"GENERATED VIA SPACETRACK.ORG API","18 SPCS","48888","SPACEBEE-103","PAYLOAD","U","21059K","2021-09-24 21:12:42","607872","15.12260384","0.0007732","97.525","35.3278","304.726","55.3242","0","999","1376","0.00019831","0.00003366","0","3126800","0 SPACEBEE-103","1 48888U 21059K   21267.88382648  .00003366  00000-0  19831-3 0  9991","2 48888  97.5250  35.3278 0007732 304.7260  55.3242 15.12260384 13765","2021-059K","48888","6907.445","95.222","534.651","523.970","0"
"GENERATED VIA SPACETRACK.ORG API","18 SPCS","48888","SPACEBEE-103","PAYLOAD","U","21059K","2021-09-25 14:40:48","612864","15.12265408","0.00077","97.525","36.0451","301.8528","58.1953","0","999","1387","0.00020373","0.00003461","0","3128274","0 SPACEBEE-103","1 48888U 21059K   21268.61167376  .00003461  00000-0  20373-3 0  9991","2 48888  97.5250  36.0451 0007700 301.8528  58.1953 15.12265408 13870","2021-059K","48888","6907.430","95.221","534.614","523.976","0"
"GENERATED VIA SPACETRACK.ORG API","18 SPCS","48888","SPACEBEE-103","PAYLOAD","U","21059K","2021-09-26 06:33:37","574784","15.12268738","0.0007682","97.5249","36.6973","299.1652","60.8809","0","999","1397","0.00019041","0.0000323","0","3129206","0 SPACEBEE-103","1 48888U 21059K   21269.27335156  .00003230  00000-0  19041-3 0  9991","2 48888  97.5249  36.6973 0007682 299.1652  60.8809 15.12268738 13979","2021-059K","48888","6907.420","95.221","534.591","523.979","0"
"GENERATED VIA SPACETRACK.ORG API","18 SPCS","48888","SPACEBEE-103","PAYLOAD","U","21059K","2021-09-26 08:08:54","467520","15.12268847","0.0007685","97.5249","36.7625","298.881","61.1649","0","999","1398","0.00018533","0.00003142","0","3129258","0 SPACEBEE-103","1 48888U 21059K   21269.33951930  .00003142  00000-0  18533-3 0  9999","2 48888  97.5249  36.7625 0007685 298.8810  61.1649 15.12268847 13987","2021-059K","48888","6907.420","95.221","534.593","523.976","0"
"GENERATED VIA SPACETRACK.ORG API","18 SPCS","48888","SPACEBEE-103","PAYLOAD","U","21059K","2021-09-26 14:30:01","999584","15.12270702","0.0007674","97.525","37.0233","297.8055","62.2398","0","999","1402","0.0001904","0.0000323","0","3129566","0 SPACEBEE-103","1 48888U 21059K   21269.60418981  .00003230  00000-0  19040-3 0  9995","2 48888  97.5250  37.0233 0007674 297.8055  62.2398 15.12270702 14028","2021-059K","48888","6907.414","95.221","534.580","523.978","0"
"GENERATED VIA SPACETRACK.ORG API","18 SPCS","48888","SPACEBEE-103","PAYLOAD","U","21059K","2021-09-27 07:58:07","594176","15.12274927","0.0007689","97.5248","37.7406","294.7973","65.2458","0","999","1413","0.00018825","0.00003193","0","3130472","0 SPACEBEE-103","1 48888U 21059K   21270.33203234  .00003193  00000-0  18825-3 0  9998","2 48888  97.5248  37.7406 0007689 294.7973  65.2458 15.12274927 14130","2021-059K","48888","6907.401","95.221","534.577","523.955","0"
"GENERATED VIA SPACETRACK.ORG API","18 SPCS","48888","SPACEBEE-103","PAYLOAD","U","21059K","2021-09-27 07:58:07","594176","15.12274927","0.0007689","97.5248","37.7406","294.7973","65.2458","0","999","1413","0.00018825","0.00003193","0","3130990","0 SPACEBEE-103","1 48888U 21059K   21270.33203234  .00003193  00000-0  18825-3 0  9998","2 48888  97.5248  37.7406 0007689 294.7973  65.2458 15.12274927 14130","2021-059K","48888","6907.401","95.221","534.577","523.955","0"
"GENERATED VIA SPACETRACK.ORG API","18 SPCS","48888","SPACEBEE-103","PAYLOAD","U","21059K","2021-09-27 19:05:05","626464","15.12277896","0.0007684","97.5248","38.197","292.8287","67.2131","0","999","1420","0.00019466","0.00003305","0","3131463","0 SPACEBEE-103","1 48888U 21059K   21270.79520401  .00003305  00000-0  19466-3 0  9993","2 48888  97.5248  38.1970 0007684 292.8287  67.2131 15.12277896 14209","2021-059K","48888","6907.392","95.221","534.565","523.949","0"
"GENERATED VIA SPACETRACK.ORG API","18 SPCS","48888","SPACEBEE-103","PAYLOAD","U","21059K","2021-09-28 09:22:37","292160","15.12281703","0.000764","97.5248","38.7839","290.5208","69.5202","0","999","1429","0.00020476","0.0000348","0","3132354","0 SPACEBEE-103","1 48888U 21059K   21271.39070940  .00003480  00000-0  20476-3 0  9995","2 48888  97.5248  38.7839 0007640 290.5208  69.5202 15.12281703 14294","2021-059K","48888","6907.380","95.220","534.523","523.968","0"
"GENERATED VIA SPACETRACK.ORG API","18 SPCS","48888","SPACEBEE-103","PAYLOAD","U","21059K","2021-09-28 12:33:10","973952","15.12282611","0.000763","97.5249","38.9143","289.9481","70.0928","0","999","1431","0.0002078","0.00003533","0","3132662","0 SPACEBEE-103","1 48888U 21059K   21271.52304368  .00003533  00000-0  20780-3 0  9991","2 48888  97.5249  38.9143 0007630 289.9481  70.0928 15.12282611 14313","2021-059K","48888","6907.378","95.220","534.513","523.972","0"
